GLOBALSTAR M023         
1 25621U 99004A   24246.88105811 -.00000024  00000+0  44478-3 0  9994
2 25621  52.0089 208.2791 0009800 212.5556 165.7012 12.62467397179538
GLOBALSTAR M040         
1 25622U 99004B   24246.61961677 -.00000075  00000+0  15994-3 0  9993
2 25622  51.9894 212.8006 0000873 105.2139  67.1197 12.61981683178948
GLOBALSTAR M036         
1 25623U 99004C   24246.47510920  .00000095  00000+0  25901-2 0  9998
2 25623  51.9950 278.6570 0011020 218.0147 288.0670 11.86582219144824
GLOBALSTAR M038         
1 25624U 99004D   24246.55250442 -.00000072  00000+0  19297-3 0  9996
2 25624  51.9962 179.9138 0001531 159.9804  11.3100 12.32506748166903
GLOBALSTAR M022         
1 25649U 99012A   24246.62529514 -.00000071  00000+0  18919-3 0  9998
2 25649  52.0079 352.6203 0001937 329.4290  44.0539 12.02487647141788
GLOBALSTAR M041         
1 25650U 99012B   24246.29869669 -.00000067  00000+0  23277-3 0  9999
2 25650  51.9991 226.1801 0002666 112.6674 247.4445 11.96660265143810
GLOBALSTAR M046         
1 25651U 99012C   24246.47258285 -.00000045  00000+0  48745-3 0  9999
2 25651  52.0065 313.6740 0002266  49.2995 324.0233 12.09394358148854
GLOBALSTAR M037         
1 25652U 99012D   24246.71057111 -.00000042  00000+0  34251-3 0  9996
2 25652  52.0033 339.5233 0001362 260.5939 219.6658 12.62416457175018
